{
  "type": "FeatureCollection",
  "features": [
    {
      "type": "Feature",
      "properties": {
        "norad_id": 29770,
        "name": "FENGYUN 1C DEB",
        "group": "fengyun-1c-debris",
        "lat": 62.47945469707399,
        "lon": 38.41456969773902,
        "alt_km": 849.8669166307054,
        "timestamp": "2025-12-06T05:40:09.512572+00:00",
        "meta_object_name": "FENGYUN 1C DEB",
        "meta_object_id": "1999-025BL",
        "meta_epoch": "2025-12-05T04:09:16.025760",
        "meta_mean_motion": 14.20043875,
        "meta_eccentricity": 0.0062198,
        "meta_inclination": 98.8472,
        "meta_ra_of_asc_node": 54.7454,
        "meta_arg_of_pericenter": 293.1891,
        "meta_mean_anomaly": 98.3686,
        "meta_ephemeris_type": 0,
        "meta_classification_type": "U",
        "meta_norad_cat_id": 29770,
        "meta_element_set_no": 999,
        "meta_rev_at_epoch": 96979,
        "meta_bstar": 0.003028979,
        "meta_mean_motion_dot": 6.534e-05,
        "meta_mean_motion_ddot": 0,
        "tle_line1": "1 29770U 99025BL  25339.17310215  .00006534  00000+0  30290-2 0  9995",
        "tle_line2": "2 29770  98.8472  54.7454 0062198 293.1891  98.3686 14.20043875969797"
      },
      "geometry": {
        "type": "Point",
        "coordinates": [
          38.41456969773902,
          62.47945469707399
        ]
      }
    },
    {
      "type": "Feature",
      "properties": {
        "norad_id": 29772,
        "name": "FENGYUN 1C DEB",
        "group": "fengyun-1c-debris",
        "lat": 19.293221074517568,
        "lon": -173.0242576148152,
        "alt_km": 848.9387225254768,
        "timestamp": "2025-12-06T05:40:09.512583+00:00",
        "meta_object_name": "FENGYUN 1C DEB",
        "meta_object_id": "1999-025BN",
        "meta_epoch": "2025-12-02T01:20:42.454752",
        "meta_mean_motion": 14.03146146,
        "meta_eccentricity": 0.01386122,
        "meta_inclination": 98.3877,
        "meta_ra_of_asc_node": 186.0811,
        "meta_arg_of_pericenter": 320.4428,
        "meta_mean_anomaly": 193.9524,
        "meta_ephemeris_type": 0,
        "meta_classification_type": "U",
        "meta_norad_cat_id": 29772,
        "meta_element_set_no": 999,
        "meta_rev_at_epoch": 96105,
        "meta_bstar": 0.0011778651,
        "meta_mean_motion_dot": 1.956e-05,
        "meta_mean_motion_ddot": 0,
        "tle_line1": "1 29772U 99025BN  25336.05604693  .00001956  00000+0  11779-2 0  9991",
        "tle_line2": "2 29772  98.3877 186.0811 0138612 320.4428 193.9524 14.03146146961054"
      },
      "geometry": {
        "type": "Point",
        "coordinates": [
          -173.0242576148152,
          19.293221074517568
        ]
      }
    },
    {
      "type": "Feature",
      "properties": {
        "norad_id": 29773,
        "name": "FENGYUN 1C DEB",
        "group": "fengyun-1c-debris",
        "lat": -34.36303619432436,
        "lon": -52.55839263241126,
        "alt_km": 808.8878859154529,
        "timestamp": "2025-12-06T05:40:09.512593+00:00",
        "meta_object_name": "FENGYUN 1C DEB",
        "meta_object_id": "1999-025BP",
        "meta_epoch": "2025-12-04T09:13:34.173120",
        "meta_mean_motion": 14.2754664,
        "meta_eccentricity": 0.004643,
        "meta_inclination": 98.9872,
        "meta_ra_of_asc_node": 131.7505,
        "meta_arg_of_pericenter": 315.1886,
        "meta_mean_anomaly": 108.7262,
        "meta_ephemeris_type": 0,
        "meta_classification_type": "U",
        "meta_norad_cat_id": 29773,
        "meta_element_set_no": 999,
        "meta_rev_at_epoch": 98078,
        "meta_bstar": 0.0006636,
        "meta_mean_motion_dot": 1.604e-05,
        "meta_mean_motion_ddot": 0,
        "tle_line1": "1 29773U 99025BP  25338.38442330  .00001604  00000+0  66360-3 0  9995",
        "tle_line2": "2 29773  98.9872 131.7505 0046430 315.1886 108.7262 14.27546640980781"
      },
      "geometry": {
        "type": "Point",
        "coordinates": [
          -52.55839263241126,
          -34.36303619432436
        ]
      }
    },
    {
      "type": "Feature",
      "properties": {
        "norad_id": 29774,
        "name": "FENGYUN 1C DEB",
        "group": "fengyun-1c-debris",
        "lat": -63.41909257893242,
        "lon": -61.000393404479404,
        "alt_km": 856.0091774922148,
        "timestamp": "2025-12-06T05:40:09.512604+00:00",
        "meta_object_name": "FENGYUN 1C DEB",
        "meta_object_id": "1999-025BQ",
        "meta_epoch": "2025-12-05T07:06:30.246624",
        "meta_mean_motion": 14.22723177,
        "meta_eccentricity": 0.00508298,
        "meta_inclination": 99.075,
        "meta_ra_of_asc_node": 279.4029,
        "meta_arg_of_pericenter": 144.3139,
        "meta_mean_anomaly": 18.5675,
        "meta_ephemeris_type": 0,
        "meta_classification_type": "U",
        "meta_norad_cat_id": 29774,
        "meta_element_set_no": 999,
        "meta_rev_at_epoch": 97969,
        "meta_bstar": 0.00030069331,
        "meta_mean_motion_dot": 6.36e-06,
        "meta_mean_motion_ddot": 0,
        "tle_line1": "1 29774U 99025BQ  25339.29618341  .00000636  00000+0  30069-3 0  9995",
        "tle_line2": "2 29774  99.0750 279.4029 0050829 144.3139  18.5675 14.22723177979691"
      },
      "geometry": {
        "type": "Point",
        "coordinates": [
          -61.000393404479404,
          -63.41909257893242
        ]
      }
    },
    {
      "type": "Feature",
      "properties": {
        "norad_id": 29776,
        "name": "FENGYUN 1C DEB",
        "group": "fengyun-1c-debris",
        "lat": 8.337809205888119,
        "lon": -171.52704243225045,
        "alt_km": 876.656023507896,
        "timestamp": "2025-12-06T05:40:09.512614+00:00",
        "meta_object_name": "FENGYUN 1C DEB",
        "meta_object_id": "1999-025BS",
        "meta_epoch": "2025-12-05T01:51:44.023104",
        "meta_mean_motion": 14.07769274,
        "meta_eccentricity": 0.002282,
        "meta_inclination": 98.7719,
        "meta_ra_of_asc_node": 6.051,
        "meta_arg_of_pericenter": 293.3553,
        "meta_mean_anomaly": 129.6923,
        "meta_ephemeris_type": 0,
        "meta_classification_type": "U",
        "meta_norad_cat_id": 29776,
        "meta_element_set_no": 999,
        "meta_rev_at_epoch": 96972,
        "meta_bstar": 0.00031277316,
        "meta_mean_motion_dot": 4.88e-06,
        "meta_mean_motion_ddot": 0,
        "tle_line1": "1 29776U 99025BS  25339.07759286  .00000488  00000+0  31277-3 0  9994",
        "tle_line2": "2 29776  98.7719   6.0510 0022820 293.3553 129.6923 14.07769274969722"
      },
      "geometry": {
        "type": "Point",
        "coordinates": [
          -171.52704243225045,
          8.337809205888119
        ]
      }
    },
    {
      "type": "Feature",
      "properties": {
        "norad_id": 29777,
        "name": "FENGYUN 1C DEB",
        "group": "fengyun-1c-debris",
        "lat": -42.90599761894349,
        "lon": -151.65557543064705,
        "alt_km": 860.4958725082834,
        "timestamp": "2025-12-06T05:40:09.512624+00:00",
        "meta_object_name": "FENGYUN 1C DEB",
        "meta_object_id": "1999-025BT",
        "meta_epoch": "2025-12-05T02:59:07.454976",
        "meta_mean_motion": 13.92100235,
        "meta_eccentricity": 0.00924421,
        "meta_inclination": 99.2845,
        "meta_ra_of_asc_node": 35.9764,
        "meta_arg_of_pericenter": 230.404,
        "meta_mean_anomaly": 184.1977,
        "meta_ephemeris_type": 0,
        "meta_classification_type": "U",
        "meta_norad_cat_id": 29777,
        "meta_element_set_no": 999,
        "meta_rev_at_epoch": 95935,
        "meta_bstar": 0.00023262862,
        "meta_mean_motion_dot": 2.62e-06,
        "meta_mean_motion_ddot": 0,
        "tle_line1": "1 29777U 99025BT  25339.12439184  .00000262  00000+0  23263-3 0  9999",
        "tle_line2": "2 29777  99.2845  35.9764 0092442 230.4040 184.1977 13.92100235959353"
      },
      "geometry": {
        "type": "Point",
        "coordinates": [
          -151.65557543064705,
          -42.90599761894349
        ]
      }
    },
    {
      "type": "Feature",
      "properties": {
        "norad_id": 29779,
        "name": "FENGYUN 1C DEB",
        "group": "fengyun-1c-debris",
        "lat": 43.903732736684354,
        "lon": -16.78362633393586,
        "alt_km": 877.7053669305606,
        "timestamp": "2025-12-06T05:40:09.512635+00:00",
        "meta_object_name": "FENGYUN 1C DEB",
        "meta_object_id": "1999-025BV",
        "meta_epoch": "2025-12-05T07:22:13.338048",
        "meta_mean_motion": 14.13432433,
        "meta_eccentricity": 0.00631309,
        "meta_inclination": 98.6774,
        "meta_ra_of_asc_node": 350.7671,
        "meta_arg_of_pericenter": 185.3248,
        "meta_mean_anomaly": 174.7261,
        "meta_ephemeris_type": 0,
        "meta_classification_type": "U",
        "meta_norad_cat_id": 29779,
        "meta_element_set_no": 999,
        "meta_rev_at_epoch": 97307,
        "meta_bstar": 0.00038937442,
        "meta_mean_motion_dot": 7.03e-06,
        "meta_mean_motion_ddot": 0,
        "tle_line1": "1 29779U 99025BV  25339.30709882  .00000703  00000+0  38937-3 0  9990",
        "tle_line2": "2 29779  98.6774 350.7671 0063130 185.3248 174.7261 14.13432433973072"
      },
      "geometry": {
        "type": "Point",
        "coordinates": [
          -16.78362633393586,
          43.903732736684354
        ]
      }
    }
  ]
}